OBJECT_NAME,OBJECT_ID,EPOCH,MEAN_MOTION,ECCENTRICITY,INCLINATION,RA_OF_ASC_NODE,ARG_OF_PERICENTER,MEAN_ANOMALY,EPHEMERIS_TYPE,CLASSIFICATION_TYPE,NORAD_CAT_ID,ELEMENT_SET_NO,REV_AT_EPOCH,BSTAR,MEAN_MOTION_DOT,MEAN_MOTION_DDOT
COSMOS 2251 DEB,1993-036AZM,2021-10-01T02:59:50.298144,14.53414634,.001559,74.0295,75.1699,147.1082,213.1054,0,U,36384,999,64628,.59897E-3,.247E-4,0
COSMOS 2251 DEB,1993-036AZN,2021-10-01T18:23:24.946080,14.40928782,.0219754,73.9876,174.6082,348.8717,10.7616,0,U,36385,999,62852,.44451E-3,.1869E-4,0
COSMOS 2251 DEB,1993-036AZQ,2021-09-30T04:51:43.254144,14.42160707,.0058618,73.9995,225.6483,319.7218,102.5941,0,U,36387,999,43618,.8329E-3,.2772E-4,0
COSMOS 2251 DEB,1993-036AZS,2021-09-30T07:05:58.872192,14.34115408,.0098741,73.8465,246.2431,124.1727,236.8835,0,U,36419,999,42840,.6778E-3,.1977E-4,0
COSMOS 2251 DEB,1993-036AZT,2021-10-01T14:02:01.589568,14.34968055,.0019712,74.0388,208.5552,311.4097,224.0175,0,U,36420,999,63033,.37854E-4,.82E-6,0
COSMOS 2251 DEB,1993-036AZV,2021-10-01T05:12:42.509088,14.79485460,.0112313,74.0097,105.0479,356.0156,4.0112,0,U,36422,999,42644,.37485E-3,.308E-4,0
COSMOS 2251 DEB,1993-036AZW,2021-10-02T00:24:02.535264,14.12567914,.0286423,73.8217,185.3238,99.6614,263.7003,0,U,36423,999,62480,.10655E-2,.2885E-4,0
COSMOS 2251 DEB,1993-036AZX,2021-10-01T13:41:05.183232,14.30246282,.0104624,74.1797,113.2381,354.4892,5.5097,0,U,36424,999,62108,.86568E-3,.2357E-4,0
COSMOS 2251 DEB,1993-036BAD,2021-09-30T21:25:30.677088,14.23495698,.0101397,74.0090,0.8501,145.9776,214.7928,0,U,36430,999,42705,.11032E-3,.239E-5,0
COSMOS 2251 DEB,1993-036BAF,2021-09-29T16:00:51.016032,15.41479764,.001719,73.6785,12.6429,255.3650,104.5651,0,U,36432,999,64652,.17267E-2,.73405E-3,0
COSMOS 2251 DEB,1993-036BAJ,2021-09-23T11:34:03.450432,14.37695087,.00907,73.8281,201.4589,95.1499,266.0013,0,U,36435,999,62487,.63202E-3,.1965E-4,0
COSMOS 2251 DEB,1993-036BAL,2021-10-01T17:02:49.706592,14.46357138,.0028848,73.9515,70.4477,284.4060,75.3896,0,U,36437,999,43758,.30512E-3,.1073E-4,0
COSMOS 2251 DEB,1993-036BAN,2021-09-29T09:28:50.894400,13.42195917,.0447616,73.9708,313.1822,224.5402,131.8907,0,U,36439,999,37978,.72463E-3,.717E-5,0
COSMOS 2251 DEB,1993-036BAQ,2021-10-01T05:36:51.818112,14.82324492,.0169013,73.8432,222.4190,282.7938,75.4398,0,U,36441,999,64106,.13357E-3,.1322E-4,0
COSMOS 2251 DEB,1993-036BAR,2021-10-01T07:23:57.882048,14.46843865,.0035496,73.9887,122.3364,248.8343,110.9021,0,U,36442,999,63451,.40851E-3,.1465E-4,0
COSMOS 2251 DEB,1993-036BAW,2021-10-02T01:26:15.076608,15.03178456,.0073377,73.9316,168.9994,90.4907,270.4689,0,U,36447,999,64910,.6324E-3,.9038E-4,0
COSMOS 2251 DEB,1993-036BAX,2021-09-27T15:41:16.419264,14.43129126,.0049252,74.0871,244.1640,207.6385,152.2153,0,U,36448,999,61772,.45664E-3,.1529E-4,0
COSMOS 2251 DEB,1993-036BBA,2021-10-02T02:30:26.254656,14.09415085,.0209355,73.9437,181.9143,330.8386,92.4026,0,U,36451,999,62669,.29633E-3,.607E-5,0
COSMOS 2251 DEB,1993-036BBC,2021-09-30T08:23:01.178880,14.38838511,.0085696,73.9308,144.9809,24.2577,93.9531,0,U,36453,999,62320,.23643E-3,.731E-5,0
COSMOS 2251 DEB,1993-036BBD,2021-10-01T11:08:15.709344,14.81858892,.0010585,74.0026,185.3840,78.7801,281.4565,0,U,36454,999,49795,.10317E-2,.8142E-4,0
COSMOS 2251 DEB,1993-036BBJ,2021-09-30T13:26:05.645184,14.11575826,.0142795,74.0524,209.6883,312.2341,46.6753,0,U,36459,999,39187,.66908E-3,.1312E-4,0
COSMOS 2251 DEB,1993-036BBS,2021-09-27T14:28:46.181856,14.27181537,.0129238,73.8618,340.7036,220.6643,210.7662,0,U,36467,999,42871,.67075E-3,.1762E-4,0
COSMOS 2251 DEB,1993-036BBV,2021-10-01T12:31:59.575584,14.50241392,.006339,73.8697,0.3815,138.2620,222.3401,0,U,36470,999,43626,.36658E-3,.1434E-4,0
COSMOS 2251 DEB,1993-036BCB,2021-09-30T08:09:32.469696,14.57687712,.0017786,74.0332,44.8576,116.6274,243.6715,0,U,36476,999,49065,.71814E-3,.3257E-4,0
COSMOS 2251 DEB,1993-036BCE,2021-10-02T02:11:10.132800,15.14027567,.0041468,74.0186,213.1011,300.3192,59.3902,0,U,36479,999,65672,.1501E-2,.27928E-3,0
COSMOS 2251 DEB,1993-036BCN,2021-10-02T01:56:42.516096,14.22354376,.0095111,74.0212,34.6515,84.5776,276.6211,0,U,36528,999,62310,.2341E-3,.521E-5,0
COSMOS 2251 DEB,1993-036BCP,2021-09-28T08:16:50.280096,14.13748122,.0165914,74.0365,271.1594,352.5284,70.3367,0,U,36529,999,39172,.15744E-2,.3372E-4,0
COSMOS 2251 DEB,1993-036BCQ,2021-10-02T00:51:08.868384,14.66165942,.0025099,74.0153,269.5347,68.3343,292.0495,0,U,36530,999,62874,.58304E-3,.3192E-4,0
COSMOS 2251 DEB,1993-036BCR,2021-09-30T03:28:52.654368,13.94314371,.0252204,74.1086,169.0297,212.4597,146.0811,0,U,36531,999,37915,.66404E-3,.1126E-4,0
COSMOS 2251 DEB,1993-036BCS,2021-10-01T19:10:46.712928,14.75873404,.0062347,73.9918,105.1609,331.2879,40.8637,0,U,36532,999,63923,.28811E-3,.2005E-4,0
