tleArray_g = [ {"id": 36384, "Line1": "1 36384U 93036AZM 21274.12488771  .00002470  00000-0  59897-3 0  9993", "Line2": "2 36384  74.0295  75.1699 0015590 147.1082 213.1054 14.53414634646280"}, {"id": 36385, "Line1": "1 36385U 93036AZN 21274.76626095  .00001869  00000-0  44451-3 0  9998", "Line2": "2 36385  73.9876 174.6082 0219754 348.8717  10.7616 14.40928782628520"}, {"id": 36387, "Line1": "1 36387U 93036AZQ 21273.20258396  .00002772  00000-0  83290-3 0  9991", "Line2": "2 36387  73.9995 225.6483 0058618 319.7218 102.5941 14.42160707436186"}, {"id": 36419, "Line1": "1 36419U 93036AZS 21273.29582028  .00001977  00000-0  67780-3 0  9990", "Line2": "2 36419  73.8465 246.2431 0098741 124.1727 236.8835 14.34115408428407"}, {"id": 36420, "Line1": "1 36420U 93036AZT 21274.58474062  .00000082  00000-0  37854-4 0  9999", "Line2": "2 36420  74.0388 208.5552 0019712 311.4097 224.0175 14.34968055630330"}, {"id": 36422, "Line1": "1 36422U 93036AZV 21274.21715867  .00003080  00000-0  37485-3 0  9992", "Line2": "2 36422  74.0097 105.0479 0112313 356.0156   4.0112 14.79485460426445"}, {"id": 36423, "Line1": "1 36423U 93036AZW 21275.01669601  .00002885  00000-0  10655-2 0  9997", "Line2": "2 36423  73.8217 185.3238 0286423  99.6614 263.7003 14.12567914624809"}, {"id": 36424, "Line1": "1 36424U 93036AZX 21274.57019888  .00002357  00000-0  86568-3 0  9995", "Line2": "2 36424  74.1797 113.2381 0104624 354.4892   5.5097 14.30246282621082"}, {"id": 36430, "Line1": "1 36430U 93036BAD 21273.89271617  .00000239  00000-0  11032-3 0  9997", "Line2": "2 36430  74.0090   0.8501 0101397 145.9776 214.7928 14.23495698427054"}, {"id": 36432, "Line1": "1 36432U 93036BAF 21272.66725713  .00073405  00000-0  17267-2 0  9994", "Line2": "2 36432  73.6785  12.6429 0017190 255.3650 104.5651 15.41479764646527"}, {"id": 36435, "Line1": "1 36435U 93036BAJ 21266.48198438  .00001965  00000-0  63202-3 0  9991", "Line2": "2 36435  73.8281 201.4589 0090700  95.1499 266.0013 14.37695087624879"}, {"id": 36437, "Line1": "1 36437U 93036BAL 21274.71029753  .00001073  00000-0  30512-3 0  9999", "Line2": "2 36437  73.9515  70.4477 0028848 284.4060  75.3896 14.46357138437585"}, {"id": 36439, "Line1": "1 36439U 93036BAN 21272.39503350  .00000717  00000-0  72463-3 0  9998", "Line2": "2 36439  73.9708 313.1822 0447616 224.5402 131.8907 13.42195917379783"}, {"id": 36441, "Line1": "1 36441U 93036BAQ 21274.23393308  .00001322  00000-0  13357-3 0  9996", "Line2": "2 36441  73.8432 222.4190 0169013 282.7938  75.4398 14.82324492641068"}, {"id": 36442, "Line1": "1 36442U 93036BAR 21274.30830882  .00001465  00000-0  40851-3 0  9995", "Line2": "2 36442  73.9887 122.3364 0035496 248.8343 110.9021 14.46843865634515"}, {"id": 36447, "Line1": "1 36447U 93036BAW 21275.05989672  .00009038  00000-0  63240-3 0  9996", "Line2": "2 36447  73.9316 168.9994 0073377  90.4907 270.4689 15.03178456649103"}, {"id": 36448, "Line1": "1 36448U 93036BAX 21270.65366226  .00001529  00000-0  45664-3 0  9999", "Line2": "2 36448  74.0871 244.1640 0049252 207.6385 152.2153 14.43129126617723"}, {"id": 36451, "Line1": "1 36451U 93036BBA 21275.10447054  .00000607  00000-0  29633-3 0  9991", "Line2": "2 36451  73.9437 181.9143 0209355 330.8386  92.4026 14.09415085626695"}, {"id": 36453, "Line1": "1 36453U 93036BBC 21273.34931920  .00000731  00000-0  23643-3 0  9990", "Line2": "2 36453  73.9308 144.9809 0085696  24.2577  93.9531 14.38838511623204"}, {"id": 36454, "Line1": "1 36454U 93036BBD 21274.46407071  .00008142  00000-0  10317-2 0  9997", "Line2": "2 36454  74.0026 185.3840 0010585  78.7801 281.4565 14.81858892497951"}, {"id": 36459, "Line1": "1 36459U 93036BBJ 21273.55978756  .00001312  00000-0  66908-3 0  9994", "Line2": "2 36459  74.0524 209.6883 0142795 312.2341  46.6753 14.11575826391870"}, {"id": 36467, "Line1": "1 36467U 93036BBS 21270.60331229  .00001762  00000-0  67075-3 0  9999", "Line2": "2 36467  73.8618 340.7036 0129238 220.6643 210.7662 14.27181537428717"}, {"id": 36470, "Line1": "1 36470U 93036BBV 21274.52221731  .00001434  00000-0  36658-3 0  9993", "Line2": "2 36470  73.8697   0.3815 0063390 138.2620 222.3401 14.50241392436268"}, {"id": 36476, "Line1": "1 36476U 93036BCB 21273.33995914  .00003257  00000-0  71814-3 0  9996", "Line2": "2 36476  74.0332  44.8576 0017786 116.6274 243.6715 14.57687712490657"}, {"id": 36479, "Line1": "1 36479U 93036BCE 21275.09108950  .00027928  00000-0  15010-2 0  9996", "Line2": "2 36479  74.0186 213.1011 0041468 300.3192  59.3902 15.14027567656729"}, {"id": 36528, "Line1": "1 36528U 93036BCN 21275.08104764  .00000521  00000-0  23410-3 0  9993", "Line2": "2 36528  74.0212  34.6515 0095111  84.5776 276.6211 14.22354376623104"}, {"id": 36529, "Line1": "1 36529U 93036BCP 21271.34502639  .00003372  00000-0  15744-2 0  9999", "Line2": "2 36529  74.0365 271.1594 0165914 352.5284  70.3367 14.13748122391727"}, {"id": 36530, "Line1": "1 36530U 93036BCQ 21275.03551931  .00003192  00000-0  58304-3 0  9990", "Line2": "2 36530  74.0153 269.5347 0025099  68.3343 292.0495 14.66165942628749"}, {"id": 36531, "Line1": "1 36531U 93036BCR 21273.14505387  .00001126  00000-0  66404-3 0  9990", "Line2": "2 36531  74.1086 169.0297 0252204 212.4597 146.0811 13.94314371379157"}, {"id": 36532, "Line1": "1 36532U 93036BCS 21274.79915177  .00002005  00000-0  28811-3 0  9992", "Line2": "2 36532  73.9918 105.1609 0062347 331.2879  40.8637 14.75873404639239"}];